line1,line2,validFromUtcTime
1 00000U 00000E   26001.00000000  .00000000  00000-0  27772-4 0    01,2 00000  89.0018   0.3303 0010047 269.7227 285.4226 13.55292943    06,2026-01-01T00:00:00Z
1 00000U 00000E   26002.00000000  .00000000  00000-0  27772-4 0    02,2 00000  89.0015   0.2292 0010200 265.1233 126.1072 13.55282701    08,2026-01-02T00:00:00Z
